NORAD_CAT_ID,OBJECT_NAME,OBJECT_TYPE,EPOCH,MEAN_MOTION,ECCENTRICITY,INCLINATION,RA_OF_ASC_NODE,ARG_OF_PERICENTER,MEAN_ANOMALY,BSTAR,MEAN_MOTION_DOT,MEAN_MOTION_DDOT,TLE_LINE0,TLE_LINE1,TLE_LINE2,SEMIMAJOR_AXIS,PERIOD,APOGEE,PERIGEE,DECAYED
54090.0,STARLINK-5177,PAYLOAD,2022-10-25 18:00:00,15.90159898,0.0030597,53.2173,122.8403,56.0722,291.5226,-0.0041597,-0.01339152,0.00051113,0 STARLINK-5177,1 54090U 22136AR  22298.75001157 -.01339152  51113-3 -41597-2 0  9999,2 54090  53.2173 122.8403 0030597  56.0722 291.5226 15.90159898  1303,6679.972,90.557,322.276,281.398,0.0
54090.0,STARLINK-5177,PAYLOAD,2022-10-25 22:00:01,15.89729098,0.0029261,53.2174,121.9959,57.0229,165.1563,-0.0043025,-0.01349583,0.0005162999999999,0 STARLINK-5177,1 54090U 22136AR  22298.91668981 -.01349583  51630-3 -43025-2 0  9992,2 54090  53.2174 121.9959 0029261  57.0229 165.1563 15.89729098  1302,6681.179,90.581,322.594,283.494,0.0
54090.0,STARLINK-5177,PAYLOAD,2022-10-26 06:00:00,15.88859656,0.0025958,53.2174,120.305,56.7257,273.6436,-0.0045178,-0.01344497,0.0005086,0 STARLINK-5177,1 54090U 22136AR  22299.25001157 -.01344497  50860-3 -45178-2 0  9990,2 54090  53.2174 120.3050 0025958  56.7257 273.6436 15.88859656  1377,6683.616,90.631,322.83,288.132,0.0
54090.0,STARLINK-5177,PAYLOAD,2022-10-26 14:00:01,15.87956014,0.0022427,53.2174,118.6176,56.0676,21.5272,-0.0045088,-0.01273218,0.00045671,0 STARLINK-5177,1 54090U 22136AR  22299.58334491 -.01273218  45671-3 -45088-2 0  9992,2 54090  53.2174 118.6176 0022427  56.0676  21.5272 15.87956014  1308,6686.151,90.683,323.011,293.021,0.0
54090.0,STARLINK-5177,PAYLOAD,2022-10-26 22:00:00,15.87122415,0.0019011,53.2176,116.9347,54.1968,129.553,-0.0049797,-0.01340052,0.00049751,0 STARLINK-5177,1 54090U 22136AR  22299.91667824 -.01340052  49751-3 -49797-2 0  9993,2 54090  53.2176 116.9347 0019011  54.1968 129.5530 15.87122415  1305,6688.4919999999975,90.73,323.073,297.642,0.0
54090.0,STARLINK-5177,PAYLOAD,2022-10-27 14:00:01,15.85314447,0.0012172,53.217,113.5692,52.6277,340.4332,-0.0049924,-0.01086218,0.0,0 STARLINK-5177,1 54090U 22136AR  22300.58335648 -.01086218  00000-0 -49924-2 0  9999,2 54090  53.2170 113.5692 0012172  52.6277 340.4332 15.85314447  1302,6693.576,90.834,323.589,307.2940000000001,0.0
54090.0,STARLINK-5177,PAYLOAD,2022-10-27 22:00:00,15.84493915,0.0008594,53.2174,111.893,48.2935,87.7146,-0.0055185,-0.01140787,0.0,0 STARLINK-5177,1 54090U 22136AR  22300.91667824 -.01140787  00000-0 -55185-2 0  9998,2 54090  53.2174 111.8930 0008594  48.2935  87.7146 15.84493915  1308,6695.887,90.881,323.507,311.998,0.0
54090.0,STARLINK-5177,PAYLOAD,2022-10-28 08:00:01,15.834342800000002,0.0004576,53.2174,109.7955,28.5455,324.8542,-0.0060488999999999,-0.01200712,0.0,0 STARLINK-5177,1 54090U 22136AR  22301.33335648 -.01200712  00000-0 -60489-2 0  9999,2 54090  53.2174 109.7955 0004576  28.5455 324.8542 15.83434280  1714,6698.874,90.942,323.8040000000001,317.6740000000001,0.0
54090.0,STARLINK-5177,PAYLOAD,2022-10-28 14:00:01,15.82770096,0.0003064999999999,53.2174,108.5405,2.7476,336.2763,-0.0061502,-0.01183548,0.0,0 STARLINK-5177,1 54090U 22136AR  22301.58335648 -.01183548  00000-0 -61502-2 0  9990,2 54090  53.2174 108.5405 0003065   2.7476 336.2763 15.82770096  1304,6700.748000000001,90.98,324.6670000000001,320.559,0.0
54090.0,STARLINK-5177,PAYLOAD,2022-10-28 22:00:01,15.81881527,0.0003203,53.2173,106.8706,309.4588,129.4806,-0.0061831,-0.01145434,0.0,0 STARLINK-5177,1 54090U 22136AR  22301.91668981 -.01145434  00000-0 -61831-2 0  9993,2 54090  53.2173 106.8706 0003203 309.4588 129.4806 15.81881527  1304,6703.257,91.031,327.269,322.975,0.0
54090.0,STARLINK-5177,PAYLOAD,2022-10-29 12:00:00,15.80298774,0.0006447,53.2171,103.9472,271.3828,249.8643,-0.0061825,-0.01055749,0.0,0 STARLINK-5177,1 54090U 22136AR  22302.50001157 -.01055749  00000-0 -61825-2 0  9997,2 54090  53.2171 103.9472 0006447 271.3828 249.8643 15.80298774  1308,6707.732,91.122,333.922,325.273,0.0
54090.0,STARLINK-5177,PAYLOAD,2022-10-29 22:00:01,15.79332186,0.0006597,53.2173,101.8674,271.6818,100.7087,-0.0074823,-0.01224313,0.0,0 STARLINK-5177,1 54090U 22136AR  22302.91668981 -.01224313  00000-0 -74823-2 0  9993,2 54090  53.2173 101.8674 0006597 271.6818 100.7087 15.79332186  1300,6710.469,91.178,336.761,327.907,0.0
54090.0,STARLINK-5177,PAYLOAD,2022-10-30 00:00:00,15.79103162,0.0006354,53.2172,101.4507,271.9235,214.4418,-0.0074905,-0.01213885,0.0,0 STARLINK-5177,1 54090U 22136AR  22303.00001157 -.01213885  00000-0 -74905-2 0  9993,2 54090  53.2172 101.4507 0006354 271.9235 214.4418 15.79103162  1971,6711.1169999999975,91.191,337.247,328.718,0.0
54090.0,STARLINK-5177,PAYLOAD,2022-10-30 14:00:01,15.77549031,0.0004242,53.2174,98.541,268.1076,294.6742,-0.0076482,-0.01159511,0.0,0 STARLINK-5177,1 54090U 22136AR  22303.58334491 -.01159511  00000-0 -76482-2 0  9993,2 54090  53.2174  98.5410 0004242 268.1076 294.6742 15.77549031  1301,6715.524,91.281,340.23800000000006,334.541,0.0
54090.0,STARLINK-5177,PAYLOAD,2022-10-30 22:00:01,15.7670713,0.0001936,53.2172,96.8835,285.4612,11.0245,-0.0081783999999999,-0.01188618,0.0,0 STARLINK-5177,1 54090U 22136AR  22303.91668981 -.01188618  00000-0 -81784-2 0  9995,2 54090  53.2172  96.8835 0001936 285.4612  11.0245 15.76707130  1300,6717.915,91.33,341.08,338.4790000000001,0.0
54090.0,STARLINK-5177,PAYLOAD,2022-10-31 14:00:01,15.74991449,0.0001429,53.2173,93.5702,47.14,73.4497,-0.0090922,-0.01220114,0.0,0 STARLINK-5177,1 54090U 22136AR  22304.58334491 -.01220114  00000-0 -90922-2 0  9997,2 54090  53.2173  93.5702 0001429  47.1400  73.4497 15.74991449  1300,6722.793000000002,91.429,345.61800000000005,343.69699999999995,0.0
54090.0,STARLINK-5177,PAYLOAD,2022-10-31 22:00:01,15.73964639,0.0001343,53.2172,91.9186,46.536,164.6751,-0.0060301,-0.00796872,0.0,0 STARLINK-5177,1 54090U 22136AR  22304.91668981 -.00796872  00000-0 -60301-2 0  9994,2 54090  53.2172  91.9186 0001343  46.5360 164.6751 15.73964639  2273,6725.715999999999,91.489,348.4840000000001,346.67800000000005,0.0
54090.0,STARLINK-5177,PAYLOAD,2022-11-01 06:00:00,15.73251064,0.0001534,53.2175,90.266,44.554,256.1067,-0.00054887,-0.00077118,0.0,0 STARLINK-5177,1 54090U 22136AR  22305.25001157 -.00077118  00000-0 -54887-3 0  9996,2 54090  53.2175  90.2660 0001534  44.5540 256.1067 15.73251064  2329,6727.75,91.53,350.647,348.583,0.0
54090.0,STARLINK-5177,PAYLOAD,2022-11-01 14:00:01,15.73256704,0.0001581,53.2162,88.6202,53.9969,335.6362,-0.00020214,-0.00028962,0.0,0 STARLINK-5177,1 54090U 22136AR  22305.58334491 -.00028962  00000-0 -20214-3 0  9992,2 54090  53.2162  88.6202 0001581  53.9969 335.6362 15.73256704  1303,6727.734,91.53,350.662,348.535,0.0
54090.0,STARLINK-5177,PAYLOAD,2022-11-01 22:00:00,15.73239177,0.0001683,53.2156,86.9714,47.0991,71.5128,-0.0003497,-0.00049495,0.0,0 STARLINK-5177,1 54090U 22136AR  22305.91667824 -.00049495  00000-0 -34970-3 0  9996,2 54090  53.2156  86.9714 0001683  47.0991  71.5128 15.73239177  1308,6727.783,91.531,350.781,348.516,0.0
54090.0,STARLINK-5177,PAYLOAD,2022-11-02 06:00:00,15.73167707,0.0001435,53.2158,85.3197,49.847,157.7323,9.1349e-05,0.00012201,0.0,0 STARLINK-5177,1 54090U 22136AR  22306.25001157  .00012201  00000-0  91349-4 0  9992,2 54090  53.2158  85.3197 0001435  49.8470 157.7323 15.73167707  2488,6727.986999999999,91.535,350.8180000000001,348.88699999999994,0.0
54090.0,STARLINK-5177,PAYLOAD,2022-11-02 14:00:01,15.73191569,0.0001472,53.2166,83.6711,42.8204,253.6513,-0.00039103,-0.00055121,0.0,0 STARLINK-5177,1 54090U 22136AR  22306.58334491 -.00055121  00000-0 -39103-3 0  9997,2 54090  53.2166  83.6711 0001472  42.8204 253.6513 15.73191569  1309,6727.919,91.534,350.775,348.7940000000001,0.0
54090.0,STARLINK-5177,PAYLOAD,2022-11-02 22:00:00,15.73147392,0.0001616,53.2158,82.0226,31.287,354.0547,0.00058801,0.00082532,0.0,0 STARLINK-5177,1 54090U 22136AR  22306.91667824  .00082532  00000-0  58801-3 0  9993,2 54090  53.2158  82.0226 0001616  31.2870 354.0547 15.73147392  2595,6728.045,91.536,350.997,348.8230000000001,0.0
54090.0,STARLINK-5177,PAYLOAD,2022-11-03 08:00:01,15.73239073,0.0001568,53.2159,79.9586,39.5911,186.9491,0.00030842,0.00042959,0.0,0 STARLINK-5177,1 54090U 22136AR  22307.33334491  .00042959  00000-0  30842-3 0  9995,2 54090  53.2159  79.9586 0001568  39.5911 186.9491 15.73239073  2658,6727.784000000002,91.531,350.704,348.594,0.0
54090.0,STARLINK-5177,PAYLOAD,2022-11-03 14:00:01,15.73278707,0.000175,53.2157,78.723,36.8,166.47400000000005,-0.00011441,-0.00016701,0.0,0 STARLINK-5177,1 54090U 22136AR  22307.58334491 -.00016701  00000-0 -11441-3 0  9994,2 54090  53.2157  78.7230 0001750  36.8000 166.4740 15.73278707  1309,6727.670999999999,91.529,350.713,348.358,0.0
54090.0,STARLINK-5177,PAYLOAD,2022-11-03 22:00:00,15.73289821,0.0001836,53.2153,77.0735,30.1997,262.0954,-0.00012572,-0.00018296,0.0,0 STARLINK-5177,1 54090U 22136AR  22307.91667824 -.00018296  00000-0 -12572-3 0  9997,2 54090  53.2153  77.0735 0001836  30.1997 262.0954 15.73289821  1303,6727.639,91.528,350.73900000000015,348.269,0.0
54090.0,STARLINK-5177,PAYLOAD,2022-11-04 06:00:00,15.73258617,0.000169,53.2155,75.4217,34.352,346.9792,9.3476e-05,0.00012551,0.0,0 STARLINK-5177,1 54090U 22136AR  22308.25001157  .00012551  00000-0  93476-4 0  9995,2 54090  53.2155  75.4217 0001690  34.3520 346.9792 15.73258617  2805,6727.728,91.53,350.73,348.456,0.0
54090.0,STARLINK-5177,PAYLOAD,2022-11-04 14:00:01,15.73263714,0.0001917,53.2158,73.7736,29.4818,80.8574,-0.00016542,-0.00023836,0.0,0 STARLINK-5177,1 54090U 22136AR  22308.58334491 -.00023836  00000-0 -16542-3 0  9999,2 54090  53.2158  73.7736 0001917  29.4818  80.8574 15.73263714  1302,6727.714,91.529,350.86800000000005,348.289,0.0
54090.0,STARLINK-5177,PAYLOAD,2022-11-04 22:00:01,15.73241378,0.0001947,53.2157,72.1242,24.6292,174.6784,-0.00074055,-0.00103475,0.0,0 STARLINK-5177,1 54090U 22136AR  22308.91668981 -.00103475  00000-0 -74055-3 0  9991,2 54090  53.2157  72.1242 0001947  24.6292 174.6784 15.73241378  2906,6727.776999999999,91.531,350.952,348.332,0.0
